start=new Date('2022-08-18T00:00:00.000Z').valueOf();
sats=[{"NORAD_CAT_ID":"49411","REF_FRAME":"TEME","OBJECT_NAME":"STARLINK-3162","BSTAR":"0.00007502400000","MEAN_MOTION_DOT":"0.00000906","OBJECT_ID":"2021-104D","GP_ID":"210406452","INCLINATION":"53.2174","ECCENTRICITY":"0.00016290","DECAY_DATE":null,"MEAN_ELEMENT_THEORY":"SGP4","RCS_SIZE":"LARGE","RA_OF_ASC_NODE":"296.2667","FILE":"3538809","REV_AT_EPOCH":"4247","MEAN_ANOMALY":"307.2282","TLE_LINE1":"1 49411U 21104D   22229.42023311  .00000906  00000-0  75024-4 0  9997","ARG_OF_PERICENTER":"52.8859","PERIAPSIS":"538.604","PERIOD":"95.437","MEAN_MOTION":"15.08844640","SEMIMAJOR_AXIS":"6917.866","LAUNCH_DATE":"2021-11-13","MEAN_MOTION_DDOT":"0.0000000000000","CENTER_NAME":"EARTH","EPHEMERIS_TYPE":"0","CLASSIFICATION_TYPE":"U","ELEMENT_SET_NO":"999","TLE_LINE2":"2 49411  53.2174 296.2667 0001629  52.8859 307.2282 15.08844640 42477","EPOCH":"2022-08-17T10:05:08.140704","OBJECT_TYPE":"PAYLOAD","TIME_SYSTEM":"UTC","APOAPSIS":"540.858","SITE":"AFETR","COUNTRY_CODE":"US"},{"CENTER_NAME":"EARTH","EPHEMERIS_TYPE":"0","ELEMENT_SET_NO":"999","CLASSIFICATION_TYPE":"U","TLE_LINE2":"2 49412  53.2173 305.9237 0001597  68.6433 291.4729 15.08843598 42353","EPOCH":"2022-08-17T11:55:05.064960","OBJECT_TYPE":"PAYLOAD","TIME_SYSTEM":"UTC","APOAPSIS":"540.839","SITE":"AFETR","COUNTRY_CODE":"US","MEAN_MOTION":"15.08843598","SEMIMAJOR_AXIS":"6917.869","LAUNCH_DATE":"2021-11-13","MEAN_MOTION_DDOT":"0.0000000000000","DECAY_DATE":null,"MEAN_ELEMENT_THEORY":"SGP4","RCS_SIZE":"LARGE","RA_OF_ASC_NODE":"305.9237","FILE":"3538809","REV_AT_EPOCH":"4235","MEAN_ANOMALY":"291.4729","TLE_LINE1":"1 49412U 21104E   22229.49658640 -.00001884  00000-0 -10028-3 0  9994","PERIAPSIS":"538.630","ARG_OF_PERICENTER":"68.6433","PERIOD":"95.437","NORAD_CAT_ID":"49412","REF_FRAME":"TEME","OBJECT_NAME":"STARLINK-3144","BSTAR":"-0.00010028000000","MEAN_MOTION_DOT":"-0.00001884","OBJECT_ID":"2021-104E","INCLINATION":"53.2173","GP_ID":"210406702","ECCENTRICITY":"0.00015970"},{"MEAN_MOTION_DDOT":"0.0000000000000","LAUNCH_DATE":"2021-11-13","SEMIMAJOR_AXIS":"6917.875","MEAN_MOTION":"15.08841857","COUNTRY_CODE":"US","SITE":"AFETR","TIME_SYSTEM":"UTC","APOAPSIS":"541.067","OBJECT_TYPE":"PAYLOAD","TLE_LINE2":"2 49413  53.2168 295.9865 0001919  52.0280 308.0885 15.08841857 43577","EPOCH":"2022-08-17T11:35:13.535520","ELEMENT_SET_NO":"999","CLASSIFICATION_TYPE":"U","CENTER_NAME":"EARTH","EPHEMERIS_TYPE":"0","ECCENTRICITY":"0.00019190","GP_ID":"210379964","INCLINATION":"53.2168","OBJECT_ID":"2021-104F","MEAN_MOTION_DOT":"0.00001264","OBJECT_NAME":"STARLINK-3157","BSTAR":"0.00009747300000","REF_FRAME":"TEME","NORAD_CAT_ID":"49413","TLE_LINE1":"1 49413U 21104F   22229.48279555  .00001264  00000-0  97473-4 0  9998","ARG_OF_PERICENTER":"52.0280","PERIAPSIS":"538.412","PERIOD":"95.437","MEAN_ANOMALY":"308.0885","FILE":"3538596","REV_AT_EPOCH":"4357","RA_OF_ASC_NODE":"295.9865","MEAN_ELEMENT_THEORY":"SGP4","RCS_SIZE":"LARGE","DECAY_DATE":null},{"MEAN_ELEMENT_THEORY":"SGP4","RCS_SIZE":"LARGE","RA_OF_ASC_NODE":"305.9501","DECAY_DATE":null,"MEAN_ANOMALY":"309.2383","TLE_LINE1":"1 49414U 21104G   22229.48922887  .00002075  00000-0  14843-3 0  9992","PERIAPSIS":"538.508","PERIOD":"95.437","ARG_OF_PERICENTER":"50.8766","FILE":"3538809","REV_AT_EPOCH":"4234","OBJECT_NAME":"STARLINK-3146","BSTAR":"0.00014843000000","NORAD_CAT_ID":"49414","REF_FRAME":"TEME","ECCENTRICITY":"0.00017690","MEAN_MOTION_DOT":"0.00002075","OBJECT_ID":"2021-104G","GP_ID":"210408204","INCLINATION":"53.2173","CLASSIFICATION_TYPE":"U","ELEMENT_SET_NO":"999","TLE_LINE2":"2 49414  53.2173 305.9501 0001769  50.8766 309.2383 15.08844306 42343","EPOCH":"2022-08-17T11:44:29.374368","EPHEMERIS_TYPE":"0","CENTER_NAME":"EARTH","SITE":"AFETR","COUNTRY_CODE":"US","OBJECT_TYPE":"PAYLOAD","TIME_SYSTEM":"UTC","APOAPSIS":"540.956","SEMIMAJOR_AXIS":"6917.867","MEAN_MOTION":"15.08844306","MEAN_MOTION_DDOT":"0.0000000000000","LAUNCH_DATE":"2021-11-13"},{"ECCENTRICITY":"0.00022680","INCLINATION":"53.2159","GP_ID":"210406952","OBJECT_ID":"2021-104H","MEAN_MOTION_DOT":"-0.00000121","OBJECT_NAME":"STARLINK-3159","BSTAR":"0.00001051300000","REF_FRAME":"TEME","NORAD_CAT_ID":"49415","TLE_LINE1":"1 49415U 21104H   22229.54535106 -.00000121  00000-0  10513-4 0  9996","ARG_OF_PERICENTER":"45.3446","PERIAPSIS":"538.155","PERIOD":"95.437","MEAN_ANOMALY":"314.7731","FILE":"3538809","REV_AT_EPOCH":"4248","RA_OF_ASC_NODE":"295.7042","MEAN_ELEMENT_THEORY":"SGP4","RCS_SIZE":"LARGE","DECAY_DATE":null,"MEAN_MOTION_DDOT":"0.0000000000000","LAUNCH_DATE":"2021-11-13","SEMIMAJOR_AXIS":"6917.859","MEAN_MOTION":"15.08846925","COUNTRY_CODE":"US","SITE":"AFETR","APOAPSIS":"541.293","TIME_SYSTEM":"UTC","OBJECT_TYPE":"PAYLOAD","TLE_LINE2":"2 49415  53.2159 295.7042 0002268  45.3446 314.7731 15.08846925 42485","EPOCH":"2022-08-17T13:05:18.331584","CLASSIFICATION_TYPE":"U","ELEMENT_SET_NO":"999","EPHEMERIS_TYPE":"0","CENTER_NAME":"EARTH"},{"CENTER_NAME":"EARTH","EPHEMERIS_TYPE":"0","CLASSIFICATION_TYPE":"U","ELEMENT_SET_NO":"999","EPOCH":"2022-08-17T13:09:16.081056","TLE_LINE2":"2 49416  53.2174 305.6779 0001539  66.0241 294.0912 15.08848251 42355","OBJECT_TYPE":"PAYLOAD","TIME_SYSTEM":"UTC","APOAPSIS":"540.785","SITE":"AFETR","COUNTRY_CODE":"US","MEAN_MOTION":"15.08848251","SEMIMAJOR_AXIS":"6917.855","LAUNCH_DATE":"2021-11-13","MEAN_MOTION_DDOT":"0.0000000000000","DECAY_DATE":null,"MEAN_ELEMENT_THEORY":"SGP4","RCS_SIZE":"LARGE","RA_OF_ASC_NODE":"305.6779","FILE":"3538809","REV_AT_EPOCH":"4235","MEAN_ANOMALY":"294.0912","TLE_LINE1":"1 49416U 21104J   22229.54810279  .00002211  00000-0  15696-3 0  9991","ARG_OF_PERICENTER":"66.0241","PERIAPSIS":"538.656","PERIOD":"95.437","NORAD_CAT_ID":"49416","REF_FRAME":"TEME","OBJECT_NAME":"STARLINK-3133","BSTAR":"0.00015696000000","MEAN_MOTION_DOT":"0.00002211","OBJECT_ID":"2021-104J","GP_ID":"210407202","INCLINATION":"53.2174","ECCENTRICITY":"0.00015390"},{"NORAD_CAT_ID":"49417","REF_FRAME":"TEME","OBJECT_NAME":"STARLINK-3154","BSTAR":"0.00008135800000","OBJECT_ID":"2021-104K","MEAN_MOTION_DOT":"0.00001007","GP_ID":"210407954","INCLINATION":"53.2164","ECCENTRICITY":"0.00017220","DECAY_DATE":null,"MEAN_ELEMENT_THEORY":"SGP4","RCS_SIZE":"LARGE","RA_OF_ASC_NODE":"296.3187","FILE":"3538809","REV_AT_EPOCH":"4246","MEAN_ANOMALY":"313.7054","TLE_LINE1":"1 49417U 21104K   22229.40918850  .00001007  00000-0  81358-4 0  9992","ARG_OF_PERICENTER":"46.4081","PERIAPSIS":"538.531","PERIOD":"95.437","MEAN_MOTION":"15.08847631","SEMIMAJOR_AXIS":"6917.857","LAUNCH_DATE":"2021-11-13","MEAN_MOTION_DDOT":"0.0000000000000","EPHEMERIS_TYPE":"0","CENTER_NAME":"EARTH","CLASSIFICATION_TYPE":"U","ELEMENT_SET_NO":"999","EPOCH":"2022-08-17T09:49:13.886400","TLE_LINE2":"2 49417  53.2164 296.3187 0001722  46.4081 313.7054 15.08847631 42461","OBJECT_TYPE":"PAYLOAD","TIME_SYSTEM":"UTC","APOAPSIS":"540.913","SITE":"AFETR","COUNTRY_CODE":"US"},{"LAUNCH_DATE":"2021-11-13","MEAN_MOTION_DDOT":"0.0000000000000","MEAN_MOTION":"15.08846770","SEMIMAJOR_AXIS":"6917.860","APOAPSIS":"540.912","TIME_SYSTEM":"UTC","OBJECT_TYPE":"PAYLOAD","COUNTRY_CODE":"US","SITE":"AFETR","EPHEMERIS_TYPE":"0","CENTER_NAME":"EARTH","TLE_LINE2":"2 49418  53.2171 306.0089 0001716  51.2313 308.8833 15.08846770 42334","EPOCH":"2022-08-17T11:28:34.812480","CLASSIFICATION_TYPE":"U","ELEMENT_SET_NO":"999","INCLINATION":"53.2171","GP_ID":"210407705","OBJECT_ID":"2021-104L","MEAN_MOTION_DOT":"0.00000863","ECCENTRICITY":"0.00017160","REF_FRAME":"TEME","NORAD_CAT_ID":"49418","OBJECT_NAME":"STARLINK-3111","BSTAR":"0.00007229000000","FILE":"3538809","REV_AT_EPOCH":"4233","TLE_LINE1":"1 49418U 21104L   22229.47818070  .00000863  00000-0  72290-4 0  9997","PERIAPSIS":"538.538","PERIOD":"95.437","ARG_OF_PERICENTER":"51.2313","MEAN_ANOMALY":"308.8833","DECAY_DATE":null,"RA_OF_ASC_NODE":"306.0089","MEAN_ELEMENT_THEORY":"SGP4","RCS_SIZE":"LARGE"},{"MEAN_ANOMALY":"303.7345","TLE_LINE1":"1 49419U 21104M   22229.53339606  .00008396  00000-0  54552-3 0  9997","PERIAPSIS":"538.585","ARG_OF_PERICENTER":"56.3822","PERIOD":"95.440","FILE":"3538809","REV_AT_EPOCH":"4234","MEAN_ELEMENT_THEORY":"SGP4","RCS_SIZE":"LARGE","RA_OF_ASC_NODE":"305.7609","DECAY_DATE":null,"ECCENTRICITY":"0.00018360","OBJECT_ID":"2021-104M","MEAN_MOTION_DOT":"0.00008396","INCLINATION":"53.2174","GP_ID":"210406453","OBJECT_NAME":"STARLINK-3120","BSTAR":"0.00054552000000","NORAD_CAT_ID":"49419","REF_FRAME":"TEME","SITE":"AFETR","COUNTRY_CODE":"US","OBJECT_TYPE":"PAYLOAD","TIME_SYSTEM":"UTC","APOAPSIS":"541.125","CLASSIFICATION_TYPE":"U","ELEMENT_SET_NO":"999","TLE_LINE2":"2 49419  53.2174 305.7609 0001836  56.3822 303.7345 15.08804252 42348","EPOCH":"2022-08-17T12:48:05.419584","EPHEMERIS_TYPE":"0","CENTER_NAME":"EARTH","MEAN_MOTION_DDOT":"0.0000000000000","LAUNCH_DATE":"2021-11-13","SEMIMAJOR_AXIS":"6917.990","MEAN_MOTION":"15.08804252"},{"CLASSIFICATION_TYPE":"U","ELEMENT_SET_NO":"999","EPOCH":"2022-08-17T11:23:17.813472","TLE_LINE2":"2 49420  53.2184 306.0092 0001430  61.2340 298.8796 15.08841486 42334","EPHEMERIS_TYPE":"0","CENTER_NAME":"EARTH","SITE":"AFETR","COUNTRY_CODE":"US","OBJECT_TYPE":"PAYLOAD","APOAPSIS":"540.730","TIME_SYSTEM":"UTC","SEMIMAJOR_AXIS":"6917.876","MEAN_MOTION":"15.08841486","MEAN_MOTION_DDOT":"0.0000000000000","LAUNCH_DATE":"2021-11-13","MEAN_ELEMENT_THEORY":"SGP4","RCS_SIZE":"LARGE","RA_OF_ASC_NODE":"306.0092","DECAY_DATE":null,"MEAN_ANOMALY":"298.8796","TLE_LINE1":"1 49420U 21104N   22229.47451173 -.00000095  00000-0  12098-4 0  9995","PERIOD":"95.437","PERIAPSIS":"538.752","ARG_OF_PERICENTER":"61.2340","FILE":"3538809","REV_AT_EPOCH":"4233","OBJECT_NAME":"STARLINK-3110","BSTAR":"0.00001209800000","NORAD_CAT_ID":"49420","REF_FRAME":"TEME","ECCENTRICITY":"0.00014300","OBJECT_ID":"2021-104N","MEAN_MOTION_DOT":"-0.00000095","GP_ID":"210406703","INCLINATION":"53.2184"}];
